STARLINK-3753           
1 52292U 22041AH  26193.58335648  .00070839  00000+0  30848-2 0  9993
2 52292  53.1593 257.7895 0001710  22.9420  33.4849 15.21592399  5641
STARLINK-3771           
1 52293U 22041AJ  26193.58335648  .00070860  00000+0  30922-2 0  9991
2 52293  53.1607 257.8067 0000024 334.0561  14.2185 15.21520507  5798
STARLINK-3777           
1 52294U 22041AK  26193.58335648  .00070492  00000+0  31361-2 0  9991
2 52294  53.1593 257.8357 0001727  20.3161  32.4873 15.20863335  5544
STARLINK-3765           
1 52295U 22041AL  26193.58335648  .00069263  00000+0  30403-2 0  9992
2 52295  53.1595 257.7415 0001550  21.2169  21.4905 15.21330597  5794
STARLINK-3766           
1 52296U 22041AM  26193.58335648  .00070106  00000+0  30397-2 0  9993
2 52296  53.1589 257.8003 0002276  68.4421  64.1695 15.21744428  5794
STARLINK-3758           
1 52297U 22041AN  26193.58335648  .00074408  00000+0  33620-2 0  9995
2 52297  53.1592 257.8280 0000646  89.0292 287.1489 15.20304737  5646
STARLINK-3760           
1 52298U 22041AP  26193.58335648  .00069417  00000+0  32933-2 0  9996
2 52298  53.1606 257.5931 0001525 135.7460 124.3047 15.18653641  5792
STARLINK-3769           
1 52300U 22041AR  26193.58335648  .00068142  00000+0  31116-2 0  9996
2 52300  53.1592 257.7909 0002266  91.6278 106.2575 15.19983857  5697
STARLINK-3768           
1 52301U 22041AS  26193.58335648  .00071924  00000+0  33986-2 0  9996
2 52301  53.1591 257.8556 0000543  71.1973 352.3408 15.18775780  5790
STARLINK-3564           
1 52302U 22041AT  26193.43685045  .00000846  00000+0  39017-4 0  9998
2 52302  53.1599 245.9911 0001108  89.2301 270.8827 15.31706864233519
STARLINK-3742           
1 52303U 22041AU  26193.58335648  .00071087  00000+0  32149-2 0  9998
2 52303  53.1591 257.8262 0001055  63.7162  97.0117 15.20295328  5699
STARLINK-3744           
1 52304U 22041AV  26193.58335648  .00084107  00000+0  43146-2 0  9995
2 52304  53.1602 247.9941 0002625  35.6277 132.4000 15.15820893  5809
STARLINK-3724           
1 52305U 22041AW  26193.58335648  .00070248  00000+0  31036-2 0  9992
2 52305  53.1586 257.8573 0003419  85.2256  91.7816 15.21099652  5790
STARLINK-3747           
1 52306U 22041AX  26193.58335648  .00082953  00000+0  38124-2 0  9994
2 52306  53.1594 247.8896 0001888  69.7384 171.8249 15.19662593  5803
STARLINK-3755           
1 52307U 22041AY  26193.58335648  .00068332  00000+0  31172-2 0  9996
2 52307  53.1599 257.8062 0002051 100.2969 109.6012 15.20016956  5803
STARLINK-3756           
1 52309U 22041BA  26193.16186295  .00000645  00000+0  32534-4 0  9992
2 52309  53.1585 247.2370 0001017  62.4989 297.6116 15.31704348234692
STARLINK-3688           
1 52310U 22041BB  26193.41354325  .00000930  00000+0  41718-4 0  9994
2 52310  53.1592 246.0692 0001113  89.4423 270.6706 15.31702056234730
STARLINK-3750           
1 52311U 22041BC  26193.58335648  .00074222  00000+0  33794-2 0  9998
2 52311  53.1588 247.9129 0000901 154.2637 135.7156 15.20042558  5797
STARLINK-3752           
1 52312U 22041BD  26193.58335648  .00082593  00000+0  35809-2 0  9998
2 52312  53.1590 247.7801 0002318  87.6146 103.9014 15.21664043  5794
STARLINK-3749           
1 52313U 22041BE  26193.58335648  .00082595  00000+0  36438-2 0  9990
2 52313  53.1609 247.8614 0002591  68.2055  86.5036 15.21069103  5792
STARLINK-3889           
1 52331U 22045A   26192.91390676 -.00000337  00000+0 -31045-5 0  9990
2 52331  53.1611  11.2168 0001128  92.4090 267.7031 15.08833677234393
STARLINK-3831           
1 52332U 22045B   26193.45582698 -.00000166  00000+0  76397-5 0  9996
2 52332  53.1615   8.7913 0001351  84.6955 275.4190 15.08833771234474
STARLINK-3847           
1 52333U 22045C   26192.86981222 -.00008896  00000+0 -27473-3 0  9995
2 52333  53.1624   8.7665 0000881  79.9617 280.1484 15.31758847234417
STARLINK-3880           
1 52334U 22045D   26192.91022674 -.00001311  00000+0 -64321-4 0  9998
2 52334  53.1612  11.2328 0001390  84.1291 275.9859 15.08832242234382
STARLINK-3814           
1 52335U 22045E   26193.50271094  .00000826  00000+0  69985-4 0  9996
2 52335  53.1619   8.5710 0001382  79.3542 280.7605 15.08842640234487
STARLINK-3823           
1 52336U 22045F   26193.47506929 -.00001393  00000+0 -31061-4 0  9997
2 52336  53.1616   4.9661 0000967  86.6010 273.5102 15.33540787234532
STARLINK-3797           
1 52337U 22045G   26193.51374173 -.00000031  00000+0  16160-4 0  9997
2 52337  53.1612   8.5198 0001181  88.6475 271.4652 15.08828956234480
STARLINK-3792           
1 52339U 22045J   26193.45481910  .00000965  00000+0  78718-4 0  9992
2 52339  53.1608   8.4275 0001343  87.4910 272.6235 15.08831311234482
STARLINK-3818           
1 52340U 22045K   26193.58335648 -.00049610  00000+0 -14197-2 0  9995
2 52340  53.1685 356.3813 0000771  88.9424 123.3014 15.35421275  5546
STARLINK-3843           
1 52341U 22045L   26193.48797510 -.00000203  00000+0  53273-5 0  9990
2 52341  53.1609   8.5882 0001222  91.5172 268.5960 15.08834567234488
