OBJECT_NAME,OBJECT_ID,EPOCH,MEAN_MOTION,ECCENTRICITY,INCLINATION,RA_OF_ASC_NODE,ARG_OF_PERICENTER,MEAN_ANOMALY,EPHEMERIS_TYPE,CLASSIFICATION_TYPE,NORAD_CAT_ID,ELEMENT_SET_NO,REV_AT_EPOCH,BSTAR,MEAN_MOTION_DOT,MEAN_MOTION_DDOT
STARLINK-3753,2022-041AH,2026-07-12T14:00:01.999872,15.21592399,.00017103,53.1593,257.7895,22.9420,33.4849,0,U,52292,999,564,.30847587E-2,.70839E-3,0
STARLINK-3771,2022-041AJ,2026-07-12T14:00:01.999872,15.21520507,.0000024,53.1607,257.8067,334.0561,14.2185,0,U,52293,999,579,.3092162E-2,.7086E-3,0
STARLINK-3777,2022-041AK,2026-07-12T14:00:01.999872,15.20863335,.00017272,53.1593,257.8357,20.3161,32.4873,0,U,52294,999,554,.31360632E-2,.70492E-3,0
STARLINK-3765,2022-041AL,2026-07-12T14:00:01.999872,15.21330597,.00015501,53.1595,257.7415,21.2169,21.4905,0,U,52295,999,579,.3040345E-2,.69263E-3,0
STARLINK-3766,2022-041AM,2026-07-12T14:00:01.999872,15.21744428,.00022761,53.1589,257.8003,68.4421,64.1695,0,U,52296,999,579,.30396574E-2,.70106E-3,0
STARLINK-3758,2022-041AN,2026-07-12T14:00:01.999872,15.20304737,.00006464,53.1592,257.8280,89.0292,287.1489,0,U,52297,999,564,.33619806E-2,.74408E-3,0
STARLINK-3760,2022-041AP,2026-07-12T14:00:01.999872,15.18653641,.00015252,53.1606,257.5931,135.7460,124.3047,0,U,52298,999,579,.32933402E-2,.69417E-3,0
STARLINK-3769,2022-041AR,2026-07-12T14:00:01.999872,15.19983857,.00022665,53.1592,257.7909,91.6278,106.2575,0,U,52300,999,569,.31115606E-2,.68142E-3,0
STARLINK-3768,2022-041AS,2026-07-12T14:00:01.999872,15.18775780,.00005432,53.1591,257.8556,71.1973,352.3408,0,U,52301,999,579,.33986128E-2,.71924E-3,0
STARLINK-3564,2022-041AT,2026-07-12T10:29:03.878880,15.31706864,.00011088,53.1599,245.9911,89.2301,270.8827,0,U,52302,999,23351,.39017204E-4,.846E-5,0
STARLINK-3742,2022-041AU,2026-07-12T14:00:01.999872,15.20295328,.00010554,53.1591,257.8262,63.7162,97.0117,0,U,52303,999,569,.32149301E-2,.71087E-3,0
STARLINK-3744,2022-041AV,2026-07-12T14:00:01.999872,15.15820893,.00026253,53.1602,247.9941,35.6277,132.4000,0,U,52304,999,580,.4314627E-2,.84107E-3,0
STARLINK-3724,2022-041AW,2026-07-12T14:00:01.999872,15.21099652,.00034196,53.1586,257.8573,85.2256,91.7816,0,U,52305,999,579,.310362E-2,.70248E-3,0
STARLINK-3747,2022-041AX,2026-07-12T14:00:01.999872,15.19662593,.00018883,53.1594,247.8896,69.7384,171.8249,0,U,52306,999,580,.38124159E-2,.82953E-3,0
STARLINK-3755,2022-041AY,2026-07-12T14:00:01.999872,15.20016956,.00020515,53.1599,257.8062,100.2969,109.6012,0,U,52307,999,580,.31171693E-2,.68332E-3,0
STARLINK-3756,2022-041BA,2026-07-12T03:53:04.958880,15.31704348,.00010179,53.1585,247.2370,62.4989,297.6116,0,U,52309,999,23469,.3253392E-4,.645E-5,0
STARLINK-3688,2022-041BB,2026-07-12T09:55:30.136800,15.31702056,.00011131,53.1592,246.0692,89.4423,270.6706,0,U,52310,999,23473,.41718383E-4,.93E-5,0
STARLINK-3750,2022-041BC,2026-07-12T14:00:01.999872,15.20042558,.00009011,53.1588,247.9129,154.2637,135.7156,0,U,52311,999,579,.33793552E-2,.74222E-3,0
STARLINK-3752,2022-041BD,2026-07-12T14:00:01.999872,15.21664043,.00023181,53.1590,247.7801,87.6146,103.9014,0,U,52312,999,579,.35808563E-2,.82593E-3,0
STARLINK-3749,2022-041BE,2026-07-12T14:00:01.999872,15.21069103,.00025915,53.1609,247.8614,68.2055,86.5036,0,U,52313,999,579,.36438497E-2,.82595E-3,0
STARLINK-3889,2022-045A,2026-07-11T21:56:01.544064,15.08833677,.0001128,53.1611,11.2168,92.4090,267.7031,0,U,52331,999,23439,-.31045E-5,-.337E-5,0
STARLINK-3831,2022-045B,2026-07-12T10:56:23.451072,15.08833771,.00013518,53.1615,8.7913,84.6955,275.4190,0,U,52332,999,23447,.7639711E-5,-.166E-5,0
STARLINK-3847,2022-045C,2026-07-11T20:52:31.775808,15.31758847,.00008819,53.1624,8.7665,79.9617,280.1484,0,U,52333,999,23441,-.27473417E-3,-.8896E-4,0
STARLINK-3880,2022-045D,2026-07-11T21:50:43.590336,15.08832242,.000139,53.1612,11.2328,84.1291,275.9859,0,U,52334,999,23438,-.64321E-4,-.1311E-4,0
STARLINK-3814,2022-045E,2026-07-12T12:03:54.225216,15.08842640,.00013829,53.1619,8.5710,79.3542,280.7605,0,U,52335,999,23448,.69985361E-4,.826E-5,0
STARLINK-3823,2022-045F,2026-07-12T11:24:05.986656,15.33540787,.0000967,53.1616,4.9661,86.6010,273.5102,0,U,52336,999,23453,-.31060804E-4,-.1393E-4,0
STARLINK-3797,2022-045G,2026-07-12T12:19:47.285472,15.08828956,.00011817,53.1612,8.5198,88.6475,271.4652,0,U,52337,999,23448,.1616019E-4,-.31E-6,0
STARLINK-3792,2022-045J,2026-07-12T10:54:56.370240,15.08831311,.00013431,53.1608,8.4275,87.4910,272.6235,0,U,52339,999,23448,.78717786E-4,.965E-5,0
STARLINK-3818,2022-045K,2026-07-12T14:00:01.999872,15.35421275,.00007711,53.1685,356.3813,88.9424,123.3014,0,U,52340,999,554,-.14197133E-2,-.4961E-3,0
STARLINK-3843,2022-045L,2026-07-12T11:42:41.048640,15.08834567,.00012224,53.1609,8.5882,91.5172,268.5960,0,U,52341,999,23448,.5327323E-5,-.203E-5,0
